0 COSMOS 2251 DEB
1 37994U 93036BQV 13282.73046226  .00000447  00000-0  17163-3 0  4732
2 37994 074.0385 151.6059 0026061 240.0588 183.7880 14.33178081132726
0 COSMOS 2251 DEB
1 37994U 93036BQV 13283.78963752  .00000497  00000-0  18980-3 0  4744
2 37994 074.0383 149.6709 0026021 237.9015 248.5039 14.33179433132873
0 COSMOS 2251 DEB
1 37994U 93036BQV 13286.09236825  .00000507  00000-0  19326-3 0  4764
2 37994 074.0379 145.4638 0025948 233.2658 249.1900 14.33181024133203
0 COSMOS 2251 DEB
1 37994U 93036BQV 13287.60831782  .00000623  00000-0  23547-3 0  4775
2 37994 074.0376 142.6941 0025901 230.1894 150.5968 14.33182970133427
0 COSMOS 2251 DEB
1 37994U 93036BQV 13289.77338785  .00000581  00000-0  22022-3 0  4781
2 37994 074.0376 138.7381 0025834 225.7856 161.1159 14.33186743133730
0 COSMOS 2251 DEB
1 37994U 93036BQV 13290.97682032  .00000567  00000-0  21528-3 0  4797
2 37994 074.0376 136.5393 0025792 223.3806 250.1074 14.33187803133903
0 COSMOS 2251 DEB
1 37994U 93036BQV 13292.03164885  .00000637  00000-0  24061-3 0  4802
2 37994 074.0376 134.6119 0025755 221.2371 292.4327 14.33188813134061
0 COSMOS 2251 DEB
1 37994U 93036BQV 13293.28026773  .00000698  00000-0  26244-3 0  4816
2 37994 074.0377 132.3304 0025703 218.6869 254.6250 14.33190666134231
0 COSMOS 2251 DEB
1 37994U 93036BQV 13294.59517050  .00000754  00000-0  28294-3 0  4825
2 37994 074.0377 129.9278 0025662 216.0224 198.7923 14.33192462134426
0 COSMOS 2251 DEB
1 37994U 93036BQV 13295.64494360  .00000805  00000-0  30149-3 0  4830
2 37994 074.0377 128.0096 0025622 213.9016 215.0397 14.33193561134570
